SL-14 R/B               
1 21423U 91042B   26059.16904314  .00000504  00000+0  60875-4 0  9996
2 21423  82.4907 229.1110 0015572 272.7643  87.1789 14.81817880851663
ERS-1                   
1 21574U 91050A   26059.31331879  .00000357  00000+0  12879-3 0  9995
2 21574  98.7888  77.3122 0031148 228.7444 131.1059 14.39440749814388
ARIANE 40 R/B           
1 21610U 91050F   26059.10919055  .00000307  00000+0  10438-3 0  9995
2 21610  98.2033 111.7044 0004381 101.9304 258.2378 14.42885382817612
INTERCOSMOS 25          
1 21819U 91086A   26059.16369402  .00001589  00000+0  30525-3 0  9998
2 21819  82.6068 315.7651 1487089 137.4548 235.1960 12.11968396495538
SL-8 R/B                
1 21876U 92008B   26059.13453933  .00000010  00000+0 -57360-5 0  9993
2 21876  82.9229 274.8879 0035075 159.4022 318.0527 13.75969889708103
SL-8 R/B                
1 21938U 92020B   26059.22735346  .00000069  00000+0  56023-4 0  9994
2 21938  82.9343 160.7849 0028079 326.2250  51.5192 13.75548215699834
USA 81                  
1 21949U 92023A   26059.22800120  .00000184  00000+0  60720-4 0  9999
2 21949  85.0102 136.8985 0002707  85.6436 274.5066 14.32364276 93438
COSMOS 2219             
1 22219U 92076A   26059.25430389  .00000365  00000+0  21605-3 0  9996
2 22219  71.0608  37.7912 0019456 219.6276 140.3426 14.14086583717046
SL-16 R/B               
1 22220U 92076B   26059.18744079  .00000249  00000+0  14776-3 0  9996
2 22220  70.9992 208.3883 0010784 113.7866  58.6462 14.16858547720481
COSMOS 2221             
1 22236U 92080A   26059.14058122  .00001798  00000+0  15719-3 0  9999
2 22236  82.5024 288.2290 0013210 220.9338 139.0893 14.96158090779361
SL-16 R/B               
1 22285U 92093B   26059.26970756 -.00000020  00000+0  14327-4 0  9999
2 22285  71.0233  24.0393 0006146 303.8426  56.2112 14.15449715711828
COSMOS 2228             
1 22286U 92094A   26059.23007134  .00002105  00000+0  17959-3 0  9997
2 22286  82.5145 246.3696 0017417 338.2404  21.8076 14.97134804774640
