CCSDS_OMM_VERS = 2.0
CREATION_DATE  = 
ORIGINATOR     = 

OBJECT_NAME    = SL-14 R/B
OBJECT_ID      = 1991-042B
CENTER_NAME    = EARTH
REF_FRAME      = TEME
TIME_SYSTEM    = UTC
MEAN_ELEMENT_THEORY = SGP/SGP4

EPOCH          = 2026-02-28T04:03:25.327296
MEAN_MOTION    = 14.81817880
ECCENTRICITY   = .00155723
INCLINATION    = 82.4907
RA_OF_ASC_NODE = 229.1110
ARG_OF_PERICENTER = 272.7643
MEAN_ANOMALY   = 87.1789

EPHEMERIS_TYPE = 0
CLASSIFICATION_TYPE = U
NORAD_CAT_ID   = 21423
ELEMENT_SET_NO = 999
REV_AT_EPOCH   = 85166
BSTAR          = .60874652E-4
MEAN_MOTION_DOT = .504E-5
MEAN_MOTION_DDOT = 0

CCSDS_OMM_VERS = 2.0
CREATION_DATE  = 
ORIGINATOR     = 

OBJECT_NAME    = ERS-1
OBJECT_ID      = 1991-050A
CENTER_NAME    = EARTH
REF_FRAME      = TEME
TIME_SYSTEM    = UTC
MEAN_ELEMENT_THEORY = SGP/SGP4

EPOCH          = 2026-02-28T07:31:10.743456
MEAN_MOTION    = 14.39440749
ECCENTRICITY   = .00311482
INCLINATION    = 98.7888
RA_OF_ASC_NODE = 77.3122
ARG_OF_PERICENTER = 228.7444
MEAN_ANOMALY   = 131.1059

EPHEMERIS_TYPE = 0
CLASSIFICATION_TYPE = U
NORAD_CAT_ID   = 21574
ELEMENT_SET_NO = 999
REV_AT_EPOCH   = 81438
BSTAR          = .12879498E-3
MEAN_MOTION_DOT = .357E-5
MEAN_MOTION_DDOT = 0

CCSDS_OMM_VERS = 2.0
CREATION_DATE  = 
ORIGINATOR     = 

OBJECT_NAME    = ARIANE 40 R/B
OBJECT_ID      = 1991-050F
CENTER_NAME    = EARTH
REF_FRAME      = TEME
TIME_SYSTEM    = UTC
MEAN_ELEMENT_THEORY = SGP/SGP4

EPOCH          = 2026-02-28T02:37:14.063520
MEAN_MOTION    = 14.42885382
ECCENTRICITY   = .00043816
INCLINATION    = 98.2033
RA_OF_ASC_NODE = 111.7044
ARG_OF_PERICENTER = 101.9304
MEAN_ANOMALY   = 258.2378

EPHEMERIS_TYPE = 0
CLASSIFICATION_TYPE = U
NORAD_CAT_ID   = 21610
ELEMENT_SET_NO = 999
REV_AT_EPOCH   = 81761
BSTAR          = .1043827E-3
MEAN_MOTION_DOT = .307E-5
MEAN_MOTION_DDOT = 0

CCSDS_OMM_VERS = 2.0
CREATION_DATE  = 
ORIGINATOR     = 

OBJECT_NAME    = INTERCOSMOS 25
OBJECT_ID      = 1991-086A
CENTER_NAME    = EARTH
REF_FRAME      = TEME
TIME_SYSTEM    = UTC
MEAN_ELEMENT_THEORY = SGP/SGP4

EPOCH          = 2026-02-28T03:55:43.163328
MEAN_MOTION    = 12.11968396
ECCENTRICITY   = .14870899
INCLINATION    = 82.6068
RA_OF_ASC_NODE = 315.7651
ARG_OF_PERICENTER = 137.4548
MEAN_ANOMALY   = 235.1960

EPHEMERIS_TYPE = 0
CLASSIFICATION_TYPE = U
NORAD_CAT_ID   = 21819
ELEMENT_SET_NO = 999
REV_AT_EPOCH   = 49553
BSTAR          = .30524692E-3
MEAN_MOTION_DOT = .1589E-4
MEAN_MOTION_DDOT = 0

CCSDS_OMM_VERS = 2.0
CREATION_DATE  = 
ORIGINATOR     = 

OBJECT_NAME    = SL-8 R/B
OBJECT_ID      = 1992-008B
CENTER_NAME    = EARTH
REF_FRAME      = TEME
TIME_SYSTEM    = UTC
MEAN_ELEMENT_THEORY = SGP/SGP4

EPOCH          = 2026-02-28T03:13:44.198112
MEAN_MOTION    = 13.75969889
ECCENTRICITY   = .00350756
INCLINATION    = 82.9229
RA_OF_ASC_NODE = 274.8879
ARG_OF_PERICENTER = 159.4022
MEAN_ANOMALY   = 318.0527

EPHEMERIS_TYPE = 0
CLASSIFICATION_TYPE = U
NORAD_CAT_ID   = 21876
ELEMENT_SET_NO = 999
REV_AT_EPOCH   = 70810
BSTAR          = -.5735974E-5
MEAN_MOTION_DOT = .1E-6
MEAN_MOTION_DDOT = 0

CCSDS_OMM_VERS = 2.0
CREATION_DATE  = 
ORIGINATOR     = 

OBJECT_NAME    = SL-8 R/B
OBJECT_ID      = 1992-020B
CENTER_NAME    = EARTH
REF_FRAME      = TEME
TIME_SYSTEM    = UTC
MEAN_ELEMENT_THEORY = SGP/SGP4

EPOCH          = 2026-02-28T05:27:23.338944
MEAN_MOTION    = 13.75548215
ECCENTRICITY   = .00280799
INCLINATION    = 82.9343
RA_OF_ASC_NODE = 160.7849
ARG_OF_PERICENTER = 326.2250
MEAN_ANOMALY   = 51.5192

EPHEMERIS_TYPE = 0
CLASSIFICATION_TYPE = U
NORAD_CAT_ID   = 21938
ELEMENT_SET_NO = 999
REV_AT_EPOCH   = 69983
BSTAR          = .56022784E-4
MEAN_MOTION_DOT = .69E-6
MEAN_MOTION_DDOT = 0

CCSDS_OMM_VERS = 2.0
CREATION_DATE  = 
ORIGINATOR     = 

OBJECT_NAME    = USA 81
OBJECT_ID      = 1992-023A
CENTER_NAME    = EARTH
REF_FRAME      = TEME
TIME_SYSTEM    = UTC
MEAN_ELEMENT_THEORY = SGP/SGP4

EPOCH          = 2026-02-28T05:28:19.303680
MEAN_MOTION    = 14.32364276
ECCENTRICITY   = .00027073
INCLINATION    = 85.0102
RA_OF_ASC_NODE = 136.8985
ARG_OF_PERICENTER = 85.6436
MEAN_ANOMALY   = 274.5066

EPHEMERIS_TYPE = 0
CLASSIFICATION_TYPE = U
NORAD_CAT_ID   = 21949
ELEMENT_SET_NO = 999
REV_AT_EPOCH   = 9343
BSTAR          = .60719856E-4
MEAN_MOTION_DOT = .184E-5
MEAN_MOTION_DDOT = 0

CCSDS_OMM_VERS = 2.0
CREATION_DATE  = 
ORIGINATOR     = 

OBJECT_NAME    = COSMOS 2219
OBJECT_ID      = 1992-076A
CENTER_NAME    = EARTH
REF_FRAME      = TEME
TIME_SYSTEM    = UTC
MEAN_ELEMENT_THEORY = SGP/SGP4

EPOCH          = 2026-02-28T06:06:11.856096
MEAN_MOTION    = 14.14086583
ECCENTRICITY   = .00194569
INCLINATION    = 71.0608
RA_OF_ASC_NODE = 37.7912
ARG_OF_PERICENTER = 219.6276
MEAN_ANOMALY   = 140.3426

EPHEMERIS_TYPE = 0
CLASSIFICATION_TYPE = U
NORAD_CAT_ID   = 22219
ELEMENT_SET_NO = 999
REV_AT_EPOCH   = 71704
BSTAR          = .21605349E-3
MEAN_MOTION_DOT = .365E-5
MEAN_MOTION_DDOT = 0

CCSDS_OMM_VERS = 2.0
CREATION_DATE  = 
ORIGINATOR     = 

OBJECT_NAME    = SL-16 R/B
OBJECT_ID      = 1992-076B
CENTER_NAME    = EARTH
REF_FRAME      = TEME
TIME_SYSTEM    = UTC
MEAN_ELEMENT_THEORY = SGP/SGP4

EPOCH          = 2026-02-28T04:29:54.884256
MEAN_MOTION    = 14.16858547
ECCENTRICITY   = .00107846
INCLINATION    = 70.9992
RA_OF_ASC_NODE = 208.3883
ARG_OF_PERICENTER = 113.7866
MEAN_ANOMALY   = 58.6462

EPHEMERIS_TYPE = 0
CLASSIFICATION_TYPE = U
NORAD_CAT_ID   = 22220
ELEMENT_SET_NO = 999
REV_AT_EPOCH   = 72048
BSTAR          = .1477627E-3
MEAN_MOTION_DOT = .249E-5
MEAN_MOTION_DDOT = 0

CCSDS_OMM_VERS = 2.0
CREATION_DATE  = 
ORIGINATOR     = 

OBJECT_NAME    = COSMOS 2221
OBJECT_ID      = 1992-080A
CENTER_NAME    = EARTH
REF_FRAME      = TEME
TIME_SYSTEM    = UTC
MEAN_ELEMENT_THEORY = SGP/SGP4

EPOCH          = 2026-02-28T03:22:26.217408
MEAN_MOTION    = 14.96158090
ECCENTRICITY   = .00132102
INCLINATION    = 82.5024
RA_OF_ASC_NODE = 288.2290
ARG_OF_PERICENTER = 220.9338
MEAN_ANOMALY   = 139.0893

EPHEMERIS_TYPE = 0
CLASSIFICATION_TYPE = U
NORAD_CAT_ID   = 22236
ELEMENT_SET_NO = 999
REV_AT_EPOCH   = 77936
BSTAR          = .1571948E-3
MEAN_MOTION_DOT = .1798E-4
MEAN_MOTION_DDOT = 0

CCSDS_OMM_VERS = 2.0
CREATION_DATE  = 
ORIGINATOR     = 

OBJECT_NAME    = SL-16 R/B
OBJECT_ID      = 1992-093B
CENTER_NAME    = EARTH
REF_FRAME      = TEME
TIME_SYSTEM    = UTC
MEAN_ELEMENT_THEORY = SGP/SGP4

EPOCH          = 2026-02-28T06:28:22.733184
MEAN_MOTION    = 14.15449715
ECCENTRICITY   = .00061469
INCLINATION    = 71.0233
RA_OF_ASC_NODE = 24.0393
ARG_OF_PERICENTER = 303.8426
MEAN_ANOMALY   = 56.2112

EPHEMERIS_TYPE = 0
CLASSIFICATION_TYPE = U
NORAD_CAT_ID   = 22285
ELEMENT_SET_NO = 999
REV_AT_EPOCH   = 71182
BSTAR          = .14326763E-4
MEAN_MOTION_DOT = -.2E-6
MEAN_MOTION_DDOT = 0

CCSDS_OMM_VERS = 2.0
CREATION_DATE  = 
ORIGINATOR     = 

OBJECT_NAME    = COSMOS 2228
OBJECT_ID      = 1992-094A
CENTER_NAME    = EARTH
REF_FRAME      = TEME
TIME_SYSTEM    = UTC
MEAN_ELEMENT_THEORY = SGP/SGP4

EPOCH          = 2026-02-28T05:31:18.163776
MEAN_MOTION    = 14.97134804
ECCENTRICITY   = .00174174
INCLINATION    = 82.5145
RA_OF_ASC_NODE = 246.3696
ARG_OF_PERICENTER = 338.2404
MEAN_ANOMALY   = 21.8076

EPHEMERIS_TYPE = 0
CLASSIFICATION_TYPE = U
NORAD_CAT_ID   = 22286
ELEMENT_SET_NO = 999
REV_AT_EPOCH   = 77464
BSTAR          = .17958979E-3
MEAN_MOTION_DOT = .2105E-4
MEAN_MOTION_DDOT = 0

